NORAD_CAT_ID,OBJECT_NAME,OBJECT_TYPE,EPOCH,MEAN_MOTION,ECCENTRICITY,INCLINATION,RA_OF_ASC_NODE,ARG_OF_PERICENTER,MEAN_ANOMALY,BSTAR,MEAN_MOTION_DOT,MEAN_MOTION_DDOT,TLE_LINE0,TLE_LINE1,TLE_LINE2,SEMIMAJOR_AXIS,PERIOD,APOGEE,PERIGEE,DECAYED
53001.0,STARLINK-4190,PAYLOAD,2023-12-08 15:09:40,15.08822796,0.0001582,53.2154,184.4817,71.0861,289.0303,-0.00027757,-4.701e-05,0.0,0 STARLINK-4190,1 53001U 22076R   23342.63172157 -.00004701  00000-0 -27757-3 0  9997,2 53001  53.2154 184.4817 0001582  71.0861 289.0303 15.08822796 79215,6917.933,95.439,540.892,538.704,0.0
53001.0,STARLINK-4190,PAYLOAD,2023-12-08 23:06:34,15.08846452,0.0001298,53.2161,182.9945,76.8036,283.3101,0.00010247,1.344e-05,0.0,0 STARLINK-4190,1 53001U 22076R   23342.96289561  .00001344  00000-0  10247-3 0  9995,2 53001  53.2161 182.9945 0001298  76.8036 283.3101 15.08846452 79262,6917.861,95.437,540.624,538.828,0.0
53001.0,STARLINK-4190,PAYLOAD,2023-12-09 13:25:02,15.08841902,0.0001634,53.2146,180.3186,73.4172,286.7,3.4677e-05,2.64e-06,0.0,0 STARLINK-4190,1 53001U 22076R   23343.55905842  .00000264  00000-0  34677-4 0  9992,2 53001  53.2146 180.3186 0001634  73.4172 286.7000 15.08841902 78889,6917.875,95.437,540.87,538.609,0.0
53001.0,STARLINK-4190,PAYLOAD,2023-12-09 16:35:48,15.08840225,0.000162,53.215,179.7221,85.0409,275.0768,2.0459e-05,3.8e-07,0.0,0 STARLINK-4190,1 53001U 22076R   23343.69153886  .00000038  00000-0  20459-4 0  9992,2 53001  53.2150 179.7221 0001620  85.0409 275.0768 15.08840225 79377,6917.88,95.438,540.865,538.624,0.0
53001.0,STARLINK-4190,PAYLOAD,2023-12-10 13:15:49,15.08840189,0.0001603,53.2147,175.8562,102.2435,257.8736,4.0971e-05,3.64e-06,0.0,0 STARLINK-4190,1 53001U 22076R   23344.55265757  .00000364  00000-0  40971-4 0  9992,2 53001  53.2147 175.8562 0001603 102.2435 257.8736 15.08840189 79035,6917.88,95.438,540.854,538.636,0.0
53001.0,STARLINK-4190,PAYLOAD,2023-12-10 19:37:22,15.08841603,0.000143,53.2151,174.6679,99.5398,260.5756,3.9578e-05,3.42e-06,0.0,0 STARLINK-4190,1 53001U 22076R   23344.81761629  .00000342  00000-0  39578-4 0  9997,2 53001  53.2151 174.6679 0001430  99.5398 260.5756 15.08841603 79541,6917.875,95.437,540.73,538.751,0.0
53001.0,STARLINK-4190,PAYLOAD,2023-12-11 19:28:09,15.08841394,0.0001418,53.2156,170.2069,94.1576,265.9578,3.9595e-05,3.42e-06,0.0,0 STARLINK-4190,1 53001U 22076R   23345.81121730  .00000342  00000-0  39595-4 0  9990,2 53001  53.2156 170.2069 0001418  94.1576 265.9578 15.08841394 79229,6917.876,95.437,540.722,538.76,0.0
53001.0,STARLINK-4190,PAYLOAD,2023-12-12 17:43:33,15.088359,0.0001532,53.2164,166.046,106.023,254.0931,1.836e-05,4e-08,0.0,0 STARLINK-4190,1 53001U 22076R   23346.73858285  .00000004  00000-0  18360-4 0  9996,2 53001  53.2164 166.0460 0001532 106.0230 254.0931 15.08835900 79838,6917.893,95.438,540.818,538.698,0.0
53001.0,STARLINK-4190,PAYLOAD,2023-12-13 19:09:43,15.08819483,0.0001503,53.2158,161.2866,98.4404,261.6759,0.00035276,5.328e-05,0.0,0 STARLINK-4190,1 53001U 22076R   23347.79842442  .00005328  00000-0  35276-3 0  9999,2 53001  53.2158 161.2866 0001503  98.4404 261.6759 15.08819483 79990,6917.943,95.439,540.848,538.768,0.0
53001.0,STARLINK-4190,PAYLOAD,2023-12-14 19:00:30,15.08840938,0.0001325,53.2159,156.8294,91.6711,268.4433,8.2051e-05,1.018e-05,0.0,0 STARLINK-4190,1 53001U 22076R   23348.79202172  .00001018  00000-0  82051-4 0  9996,2 53001  53.2159 156.8294 0001325  91.6711 268.4433 15.08840938 80146,6917.878,95.437,540.659,538.826,0.0
53001.0,STARLINK-4190,PAYLOAD,2023-12-15 18:51:18,15.08839593,0.0001603,53.2167,152.3679,73.087,287.0298,4.1028e-05,3.65e-06,0.0,0 STARLINK-4190,1 53001U 22076R   23349.78562610  .00000365  00000-0  41028-4 0  9995,2 53001  53.2167 152.3679 0001603  73.0870 287.0298 15.08839593 79826,6917.882,95.438,540.856,538.638,0.0
53001.0,STARLINK-4190,PAYLOAD,2023-12-16 17:06:42,15.0881602,0.0001209,53.2166,148.2044,87.3623,272.7507,0.00045479,6.953e-05,0.0,0 STARLINK-4190,1 53001U 22076R   23350.71298639  .00006953  00000-0  45479-3 0  9999,2 53001  53.2166 148.2044 0001209  87.3623 272.7507 15.08816020 80434,6917.954,95.439,540.655,538.982,0.0
53001.0,STARLINK-4190,PAYLOAD,2023-12-17 13:46:42,15.08841425,0.0001357,53.216,144.3398,95.2117,264.9029,3.73e-05,3.06e-06,0.0,0 STARLINK-4190,1 53001U 22076R   23351.57410467  .00000306  00000-0  37300-4 0  9990,2 53001  53.2160 144.3398 0001357  95.2117 264.9029 15.08841425 80098,6917.876,95.437,540.68,538.802,0.0
53001.0,STARLINK-4190,PAYLOAD,2023-12-17 16:57:28,15.08841466,0.0001411,53.2161,143.744,84.3174,275.7979,6.3259e-05,7.19e-06,0.0,0 STARLINK-4190,1 53001U 22076R   23351.70658459  .00000719  00000-0  63259-4 0  9990,2 53001  53.2161 143.7440 0001411  84.3174 275.7979 15.08841466 80586,6917.876,95.437,540.717,538.765,0.0
53001.0,STARLINK-4190,PAYLOAD,2023-12-18 13:37:29,15.08806653,0.000105,53.2173,139.8758,95.0023,265.1089,0.00062124,9.604e-05,0.0,0 STARLINK-4190,1 53001U 22076R   23352.56770320  .00009604  00000-0  62124-3 0  9998,2 53001  53.2173 139.8758 0001050  95.0023 265.1089 15.08806653 80245,6917.982,95.44,540.574,539.121,0.0
53001.0,STARLINK-4190,PAYLOAD,2023-12-18 15:12:52,15.08848104,0.0001338,53.2168,139.5755,86.6529,273.4616,4.624e-05,4.48e-06,0.0,0 STARLINK-4190,1 53001U 22076R   23352.63393921  .00000448  00000-0  46240-4 0  9993,2 53001  53.2168 139.5755 0001338  86.6529 273.4616 15.08848104 80255,6917.856,95.437,540.646,538.795,0.0
53001.0,STARLINK-4190,PAYLOAD,2023-12-19 13:28:16,15.08841167,0.0001427,53.2179,135.4161,103.3365,256.7786,4.1412e-05,3.71e-06,0.0,0 STARLINK-4190,1 53001U 22076R   23353.56130304  .00000371  00000-0  41412-4 0  9991,2 53001  53.2179 135.4161 0001427 103.3365 256.7786 15.08841167 80396,6917.877,95.437,540.729,538.755,0.0
53001.0,STARLINK-4190,PAYLOAD,2023-12-19 15:03:39,15.08841051,0.0001271,53.217,135.1167,88.2721,271.8417,2.9185e-05,1.77e-06,0.0,0 STARLINK-4190,1 53001U 22076R   23353.62754346  .00000177  00000-0  29185-4 0  9993,2 53001  53.2170 135.1167 0001271  88.2721 271.8417 15.08841051 80878,6917.877,95.437,540.621,538.863,0.0
53001.0,STARLINK-4190,PAYLOAD,2023-12-20 13:19:04,15.08831677,0.0001284,53.2176,130.9548,61.8189,298.2933,-1.9144e-05,-5.92e-06,0.0,0 STARLINK-4190,1 53001U 22076R   23354.55491447 -.00000592  00000-0 -19144-4 0  9993,2 53001  53.2176 130.9548 0001284  61.8189 298.2933 15.08831677 80542,6917.906,95.438,540.659,538.883,0.0
53001.0,STARLINK-4190,PAYLOAD,2023-12-20 14:54:27,15.08831923,0.0001259,53.217,130.658,67.0835,293.0289,-2.3893e-05,-6.68e-06,0.0,0 STARLINK-4190,1 53001U 22076R   23354.62115436 -.00000668  00000-0 -23893-4 0  9992,2 53001  53.2170 130.6580 0001259  67.0835 293.0289 15.08831923 81022,6917.905,95.438,540.641,538.899,0.0
53001.0,STARLINK-4190,PAYLOAD,2023-12-21 14:45:14,15.08837676,0.0001172,53.2162,126.1978,87.3941,272.7186,6.6835e-05,7.76e-06,0.0,0 STARLINK-4190,1 53001U 22076R   23355.61475264  .00000776  00000-0  66835-4 0  9991,2 53001  53.2162 126.1978 0001172  87.3941 272.7186 15.08837676 80706,6917.887,95.438,540.563,538.942,0.0
53001.0,STARLINK-4190,PAYLOAD,2023-12-22 14:36:01,15.08844322,0.0001506,53.2167,121.7396,55.9171,304.1964,0.000197,2.849e-05,0.0,0 STARLINK-4190,1 53001U 22076R   23356.60835097  .00002849  00000-0  19700-3 0  9996,2 53001  53.2167 121.7396 0001506  55.9171 304.1964 15.08844322 80859,6917.867,95.437,540.774,538.69,0.0
53001.0,STARLINK-4190,PAYLOAD,2023-12-22 16:11:24,15.08847654,0.0001444,53.217,121.4407,62.0949,298.019,0.00024249,3.574e-05,0.0,0 STARLINK-4190,1 53001U 22076R   23356.67458805  .00003574  00000-0  24249-3 0  9991,2 53001  53.2170 121.4407 0001444  62.0949 298.0190 15.08847654 81333,6917.857,95.437,540.721,538.723,0.0
53001.0,STARLINK-4190,PAYLOAD,2023-12-23 11:16:02,15.0884126,0.0001464,53.2152,117.8725,71.3093,288.8058,3.504e-05,2.7e-06,0.0,0 STARLINK-4190,1 53001U 22076R   23357.46947466  .00000270  00000-0  35040-4 0  9997,2 53001  53.2152 117.8725 0001464  71.3093 288.8058 15.08841260 81450,6917.877,95.437,540.754,538.729,0.0
53001.0,STARLINK-4190,PAYLOAD,2023-12-23 14:26:48,15.08843561,0.0001487,53.2151,117.2787,62.8429,297.2714,7.6529e-05,9.3e-06,0.0,0 STARLINK-4190,1 53001U 22076R   23357.60195397  .00000930  00000-0  76529-4 0  9991,2 53001  53.2151 117.2787 0001487  62.8429 297.2714 15.08843561 81004,6917.87,95.437,540.763,538.706,0.0
53001.0,STARLINK-4190,PAYLOAD,2023-12-24 14:17:35,15.08848411,0.0001296,53.2151,112.8168,84.4064,275.7076,9.6406e-05,1.247e-05,0.0,0 STARLINK-4190,1 53001U 22076R   23358.59554900  .00001247  00000-0  96406-4 0  9997,2 53001  53.2151 112.8168 0001296  84.4064 275.7076 15.08848411 81158,6917.855,95.437,540.616,538.823,0.0
53001.0,STARLINK-4190,PAYLOAD,2023-12-25 10:57:36,15.08841496,0.0001442,53.2153,108.9506,74.6396,285.4755,6.548e-05,7.54e-06,0.0,0 STARLINK-4190,1 53001U 22076R   23359.45667315  .00000754  00000-0  65480-4 0  9998,2 53001  53.2153 108.9506 0001442  74.6396 285.4755 15.08841496 81758,6917.876,95.437,540.738,538.743,0.0
53001.0,STARLINK-4190,PAYLOAD,2023-12-25 14:08:22,15.08841968,0.0001438,53.2168,108.354,79.4604,280.655,5.9547e-05,6.6e-06,0.0,0 STARLINK-4190,1 53001U 22076R   23359.58915239  .00000660  00000-0  59547-4 0  9996,2 53001  53.2168 108.3540 0001438  79.4604 280.6550 15.08841968 81301,6917.874,95.437,540.734,538.745,0.0
53001.0,STARLINK-4190,PAYLOAD,2023-12-26 10:48:24,15.08835358,0.0001375,53.2185,104.4969,95.6211,264.4938,-3.6895e-05,-8.75e-06,0.0,0 STARLINK-4190,1 53001U 22076R   23360.45028058 -.00000875  00000-0 -36895-4 0  9999,2 53001  53.2185 104.4969 0001375  95.6211 264.4938 15.08835358 81908,6917.895,95.438,540.711,538.808,0.0
53001.0,STARLINK-4190,PAYLOAD,2023-12-26 13:59:09,15.08844475,0.000123,53.217,103.8954,84.9853,275.128,-4.8748e-05,-1.064e-05,0.0,0 STARLINK-4190,1 53001U 22076R   23360.58275390 -.00001064  00000-0 -48748-4 0  9997,2 53001  53.2170 103.8954 0001230  84.9853 275.1280 15.08844475 81451,6917.867,95.437,540.583,538.881,0.0
